0 TITAN 3C TRANSTAGE DEB
1 20102U 65108AC  13283.14478039 -.00000074  00000-0  68985-3 0  6828
2 20102 026.8460 266.1310 6753906 118.7357 355.0588 02.74404755193106
0 TITAN 3C TRANSTAGE DEB
1 20102U 65108AC  13285.33933748 -.00000126  00000-0  59838-3 0  6830
2 20102 026.8445 265.1892 6753835 120.3058 002.9530 02.74405152193164
0 TITAN 3C TRANSTAGE DEB
1 20102U 65108AC  13291.16321987 -.00000157  00000-0  46202-3 0  6840
2 20102 026.8408 262.6911 6753529 124.4702 356.0931 02.74406510193323
0 TITAN 3C TRANSTAGE DEB
1 20102U 65108AC  13294.07160653 -.00000163  00000-0 -91547-4 0  6856
2 20102 026.8403 261.4439 6753375 126.5481 349.1603 02.74407361193409
